STARLINK-3567           
1 51871U 22022V   26068.21697169 -.00001150  00000+0 -54140-4 0  9999
2 51871  53.2206  11.2434 0001761  84.8005 275.3188 15.08840488223150
LEMUR-2-UNTITLED-SC     
1 63351U 25061A   26068.89211098  .00005783  00000+0  33296-3 0  9990
2 63351  97.5556  45.0864 0017373 245.6030 114.3388 15.12695529 52577
