[{"OBJECT_NAME":"STARLINK-3567","OBJECT_ID":"2022-022V","EPOCH":"2026-03-09T05:12:26.354016","MEAN_MOTION":15.08840488,"ECCENTRICITY":0.00017614,"INCLINATION":53.2206,"RA_OF_ASC_NODE":11.2434,"ARG_OF_PERICENTER":84.8005,"MEAN_ANOMALY":275.3188,"EPHEMERIS_TYPE":0,"CLASSIFICATION_TYPE":"U","NORAD_CAT_ID":51871,"ELEMENT_SET_NO":999,"REV_AT_EPOCH":22315,"BSTAR":-5.4139838e-5,"MEAN_MOTION_DOT":-1.15e-5,"MEAN_MOTION_DDOT":0},{"OBJECT_NAME":"LEMUR-2-UNTITLED-SC","OBJECT_ID":"2025-061A","EPOCH":"2026-03-09T21:24:38.388672","MEAN_MOTION":15.12695529,"ECCENTRICITY":0.00173727,"INCLINATION":97.5556,"RA_OF_ASC_NODE":45.0864,"ARG_OF_PERICENTER":245.603,"MEAN_ANOMALY":114.3388,"EPHEMERIS_TYPE":0,"CLASSIFICATION_TYPE":"U","NORAD_CAT_ID":63351,"ELEMENT_SET_NO":999,"REV_AT_EPOCH":5257,"BSTAR":0.00033295729,"MEAN_MOTION_DOT":5.783e-5,"MEAN_MOTION_DDOT":0}]
